[
{"type":"Feature","geometry":{"type":"Point","coordinates":[13.382901636260556,52.53096016251435]},"properties":{"plz":"10115","ortsteil":"Mitte"}},
{"type":"Feature","geometry":{"type":"Point","coordinates":[13.387661837129144,52.516090898795206]},"properties":{"plz":"10117","ortsteil":"Mitte"}},
{"type":"Feature","geometry":{"type":"Point","coordinates":[13.405336297202393,52.53050964924209]},"properties":{"plz":"10119","ortsteil":"Mitte"}},
{"type":"Feature","geometry":{"type":"Point","coordinates":[13.403880720367795,52.51941745596058]},"properties":{"plz":"10178","ortsteil":"Mitte"}},
{"type":"Feature","geometry":{"type":"Point","coordinates":[13.416590633084734,52.511458907829365]},"properties":{"plz":"10179","ortsteil":"Mitte"}},
{"type":"Feature","geometry":{"type":"Point","coordinates":[13.439183946049864,52.511546475157886]},"properties":{"plz":"10243","ortsteil":"Friedrichshain"}},
{"type":"Feature","geometry":{"type":"Point","coordinates":[13.459386720284929,52.504467394552776]},"properties":{"plz":"10245","ortsteil":"Friedrichshain"}},
{"type":"Feature","geometry":{"type":"Point","coordinates":[13.467830930506777,52.515401133002186]},"properties":{"plz":"10247","ortsteil":"Friedrichshain"}},
{"type":"Feature","geometry":{"type":"Point","coordinates":[13.443364933372793,52.52278833073079]},"properties":{"plz":"10249","ortsteil":"Friedrichshain"}},
{"type":"Feature","geometry":{"type":"Point","coordinates":[13.513265782998428,52.51083440669649]},"properties":{"plz":"10315","ortsteil":"Friedrichsfelde"}},
{"type":"Feature","geometry":{"type":"Point","coordinates":[13.486295546614123,52.4984367465217]},"properties":{"plz":"10317","ortsteil":"Lichtenberg"}},
{"type":"Feature","geometry":{"type":"Point","coordinates":[13.530596095241757,52.48289699978551]},"properties":{"plz":"10318","ortsteil":"Lichtenberg"}},
{"type":"Feature","geometry":{"type":"Point","coordinates":[13.520388726710506,52.499166347321406]},"properties":{"plz":"10319","ortsteil":"Lichtenberg"}},
{"type":"Feature","geometry":{"type":"Point","coordinates":[13.496199451810979,52.52138690915408]},"properties":{"plz":"10365","ortsteil":"Lichtenberg"}},
{"type":"Feature","geometry":{"type":"Point","coordinates":[13.480882660486031,52.51900447675274]},"properties":{"plz":"10367","ortsteil":"Lichtenberg"}},
{"type":"Feature","geometry":{"type":"Point","coordinates":[13.470209715941225,52.5289908627732]},"properties":{"plz":"10369","ortsteil":"Lichtenberg"}},
{"type":"Feature","geometry":{"type":"Point","coordinates":[13.42366677934357,52.533430552534895]},"properties":{"plz":"10405","ortsteil":"Prenzlauer Berg"}},
{"type":"Feature","geometry":{"type":"Point","coordinates":[13.449303257409195,52.53207256900061]},"properties":{"plz":"10407","ortsteil":"Prenzlauer Berg"}},
{"type":"Feature","geometry":{"type":"Point","coordinates":[13.442935099753328,52.543418283460184]},"properties":{"plz":"10409","ortsteil":"Prenzlauer Berg"}},
{"type":"Feature","geometry":{"type":"Point","coordinates":[13.411878245438592,52.537392816362434]},"properties":{"plz":"10435","ortsteil":"Prenzlauer Berg"}},
{"type":"Feature","geometry":{"type":"Point","coordinates":[13.413989145567191,52.545167236535576]},"properties":{"plz":"10437","ortsteil":"Prenzlauer Berg"}},
{"type":"Feature","geometry":{"type":"Point","coordinates":[13.408309602714695,52.55319500094443]},"properties":{"plz":"10439","ortsteil":"Prenzlauer Berg"}},
{"type":"Feature","geometry":{"type":"Point","coordinates":[13.337224680528625,52.53084699413125]},"properties":{"plz":"10551","ortsteil":"Moabit"}},
{"type":"Feature","geometry":{"type":"Point","coordinates":[13.321445137106714,52.53070450192664]},"properties":{"plz":"10553","ortsteil":"Moabit"}},
{"type":"Feature","geometry":{"type":"Point","coordinates":[13.336195017770397,52.521152150015496]},"properties":{"plz":"10555","ortsteil":"Moabit"}},
{"type":"Feature","geometry":{"type":"Point","coordinates":[13.364361380147118,52.52283677265562]},"properties":{"plz":"10557","ortsteil":"Moabit"}},
{"type":"Feature","geometry":{"type":"Point","coordinates":[13.348925261418534,52.5287187620531]},"properties":{"plz":"10559","ortsteil":"Moabit"}},
{"type":"Feature","geometry":{"type":"Point","coordinates":[13.305529323287569,52.51505617103877]},"properties":{"plz":"10585","ortsteil":"Charlottenburg"}},
{"type":"Feature","geometry":{"type":"Point","coordinates":[13.323621404314919,52.51945630847115]},"properties":{"plz":"10587","ortsteil":"Charlottenburg"}},
{"type":"Feature","geometry":{"type":"Point","coordinates":[13.306125414834668,52.52770139748844]},"properties":{"plz":"10589","ortsteil":"Charlottenburg"}},
{"type":"Feature","geometry":{"type":"Point","coordinates":[13.32759939650955,52.50907638375812]},"properties":{"plz":"10623","ortsteil":"Charlottenburg"}},
{"type":"Feature","geometry":{"type":"Point","coordinates":[13.314636921858046,52.509561065767805]},"properties":{"plz":"10625","ortsteil":"Charlottenburg"}},
{"type":"Feature","geometry":{"type":"Point","coordinates":[13.302377075459823,52.50754936640831]},"properties":{"plz":"10627","ortsteil":"Charlottenburg"}},
{"type":"Feature","geometry":{"type":"Point","coordinates":[13.30872850906443,52.50279607802909]},"properties":{"plz":"10629","ortsteil":"Charlottenburg"}},
{"type":"Feature","geometry":{"type":"Point","coordinates":[13.313760135832942,52.496453757835205]},"properties":{"plz":"10707","ortsteil":"Wilmersdorf"}},
{"type":"Feature","geometry":{"type":"Point","coordinates":[13.302304473619527,52.49490671808829]},"properties":{"plz":"10709","ortsteil":"Wilmersdorf"}},
{"type":"Feature","geometry":{"type":"Point","coordinates":[13.290673278285418,52.49840980425468]},"properties":{"plz":"10711","ortsteil":"Halensee"}},
{"type":"Feature","geometry":{"type":"Point","coordinates":[13.313329746062731,52.48462007902291]},"properties":{"plz":"10713","ortsteil":"Wilmersdorf"}},
{"type":"Feature","geometry":{"type":"Point","coordinates":[13.328947376972375,52.48228805428147]},"properties":{"plz":"10715","ortsteil":"Wilmersdorf"}},
{"type":"Feature","geometry":{"type":"Point","coordinates":[13.327491696814572,52.49119332902565]},"properties":{"plz":"10717","ortsteil":"Wilmersdorf"}},
{"type":"Feature","geometry":{"type":"Point","coordinates":[13.325842218241489,52.498989788787526]},"properties":{"plz":"10719","ortsteil":"Wilmersdorf"}},
{"type":"Feature","geometry":{"type":"Point","coordinates":[13.341905440385064,52.49708039690718]},"properties":{"plz":"10777","ortsteil":"Wilmersdorf"}},
{"type":"Feature","geometry":{"type":"Point","coordinates":[13.339448906531208,52.49159260189589]},"properties":{"plz":"10779","ortsteil":"Schöneberg"}},
{"type":"Feature","geometry":{"type":"Point","coordinates":[13.350347420346555,52.49345573924633]},"properties":{"plz":"10781","ortsteil":"Schöneberg"}},
{"type":"Feature","geometry":{"type":"Point","coordinates":[13.363966656443067,52.49591655043268]},"properties":{"plz":"10783","ortsteil":"Schöneberg"}},
{"type":"Feature","geometry":{"type":"Point","coordinates":[13.36420995220941,52.507278131735774]},"properties":{"plz":"10785","ortsteil":"Tiergarten"}},
{"type":"Feature","geometry":{"type":"Point","coordinates":[13.343625373952788,52.50855654508203]},"properties":{"plz":"10787","ortsteil":"Tiergarten"}},
{"type":"Feature","geometry":{"type":"Point","coordinates":[13.33702170366036,52.50197381196232]},"properties":{"plz":"10789","ortsteil":"Schöneberg"}},
{"type":"Feature","geometry":{"type":"Point","coordinates":[13.35096794950784,52.48756963708136]},"properties":{"plz":"10823","ortsteil":"Schöneberg"}},
{"type":"Feature","geometry":{"type":"Point","coordinates":[13.340850124281848,52.4837198622592]},"properties":{"plz":"10825","ortsteil":"Schöneberg"}},
{"type":"Feature","geometry":{"type":"Point","coordinates":[13.352201597975785,52.48208064573362]},"properties":{"plz":"10827","ortsteil":"Schöneberg"}},
{"type":"Feature","geometry":{"type":"Point","coordinates":[13.360723639877126,52.479530051676036]},"properties":{"plz":"10829","ortsteil":"Schöneberg"}},
{"type":"Feature","geometry":{"type":"Point","coordinates":[13.396572300547573,52.49316817807768]},"properties":{"plz":"10961","ortsteil":"Kreuzberg"}},
{"type":"Feature","geometry":{"type":"Point","coordinates":[13.382215125259757,52.5005508045998]},"properties":{"plz":"10963","ortsteil":"Kreuzberg"}},
{"type":"Feature","geometry":{"type":"Point","coordinates":[13.403478805408454,52.48247593472877]},"properties":{"plz":"10965","ortsteil":"Kreuzberg"}},
{"type":"Feature","geometry":{"type":"Point","coordinates":[13.417350992355198,52.49053568040348]},"properties":{"plz":"10967","ortsteil":"Kreuzberg"}},
{"type":"Feature","geometry":{"type":"Point","coordinates":[13.40127679825034,52.50304913587438]},"properties":{"plz":"10969","ortsteil":"Kreuzberg"}},
{"type":"Feature","geometry":{"type":"Point","coordinates":[13.43555093485842,52.501431825523596]},"properties":{"plz":"10997","ortsteil":"Kreuzberg"}},
{"type":"Feature","geometry":{"type":"Point","coordinates":[13.43068294892235,52.49592079398512]},"properties":{"plz":"10999","ortsteil":"Kreuzberg"}},
{"type":"Feature","geometry":{"type":"Point","coordinates":[13.44079105410303,52.477520840378816]},"properties":{"plz":"12043","ortsteil":"Neukölln"}},
{"type":"Feature","geometry":{"type":"Point","coordinates":[13.437301033718256,52.486655509575776]},"properties":{"plz":"12045","ortsteil":"Neukölln"}},
{"type":"Feature","geometry":{"type":"Point","coordinates":[13.42895586847758,52.489836911259104]},"properties":{"plz":"12047","ortsteil":"Kreuzberg"}},
{"type":"Feature","geometry":{"type":"Point","coordinates":[13.42199499032168,52.475837045993806]},"properties":{"plz":"12049","ortsteil":"Neukölln"}},
{"type":"Feature","geometry":{"type":"Point","coordinates":[13.42988855626734,52.466522923383195]},"properties":{"plz":"12051","ortsteil":"Neukölln"}},
{"type":"Feature","geometry":{"type":"Point","coordinates":[13.431229384369082,52.47842243570334]},"properties":{"plz":"12053","ortsteil":"Neukölln"}},
{"type":"Feature","geometry":{"type":"Point","coordinates":[13.448574848216595,52.47153735708425]},"properties":{"plz":"12055","ortsteil":"Neukölln"}},
{"type":"Feature","geometry":{"type":"Point","coordinates":[13.464423865972579,52.467626744216844]},"properties":{"plz":"12057","ortsteil":"Neukölln"}},
{"type":"Feature","geometry":{"type":"Point","coordinates":[13.452682505493843,52.48056498941566]},"properties":{"plz":"12059","ortsteil":"Neukölln"}},
{"type":"Feature","geometry":{"type":"Point","coordinates":[13.402223452599927,52.465601833011505]},"properties":{"plz":"12099","ortsteil":"Tempelhof"}},
{"type":"Feature","geometry":{"type":"Point","coordinates":[13.379432955016062,52.47832827626581]},"properties":{"plz":"12101","ortsteil":"Tempelhof"}},
{"type":"Feature","geometry":{"type":"Point","coordinates":[13.37556195250757,52.46510460002787]},"properties":{"plz":"12103","ortsteil":"Tempelhof"}},
{"type":"Feature","geometry":{"type":"Point","coordinates":[13.371053020552788,52.44781544384496]},"properties":{"plz":"12105","ortsteil":"Mariendorf"}},
{"type":"Feature","geometry":{"type":"Point","coordinates":[13.396952479928022,52.42947376690187]},"properties":{"plz":"12107","ortsteil":"Mariendorf"}},
{"type":"Feature","geometry":{"type":"Point","coordinates":[13.397813983303296,52.44675294891044]},"properties":{"plz":"12109","ortsteil":"Mariendorf"}},
{"type":"Feature","geometry":{"type":"Point","coordinates":[13.349018107196274,52.466092529008996]},"properties":{"plz":"12157","ortsteil":"Schöneberg"}},
{"type":"Feature","geometry":{"type":"Point","coordinates":[13.336321222966832,52.473010582406985]},"properties":{"plz":"12159","ortsteil":"Friedenau"}},
{"type":"Feature","geometry":{"type":"Point","coordinates":[13.32533118739979,52.47056744662092]},"properties":{"plz":"12161","ortsteil":"Friedenau"}},
{"type":"Feature","geometry":{"type":"Point","coordinates":[13.321550605418192,52.46225142559469]},"properties":{"plz":"12163","ortsteil":"Steglitz"}},
{"type":"Feature","geometry":{"type":"Point","coordinates":[13.313182099646403,52.45632234795468]},"properties":{"plz":"12165","ortsteil":"Steglitz"}},
{"type":"Feature","geometry":{"type":"Point","coordinates":[13.32767759204925,52.44914517838692]},"properties":{"plz":"12167","ortsteil":"Steglitz"}},
{"type":"Feature","geometry":{"type":"Point","coordinates":[13.343845882294806,52.455152321817266]},"properties":{"plz":"12169","ortsteil":"Steglitz"}},
{"type":"Feature","geometry":{"type":"Point","coordinates":[13.310105233223304,52.44430293470802]},"properties":{"plz":"12203","ortsteil":"Lichtenfelde"}},
{"type":"Feature","geometry":{"type":"Point","coordinates":[13.294675641713676,52.43487211043585]},"properties":{"plz":"12205","ortsteil":"Lichtenfelde"}},
{"type":"Feature","geometry":{"type":"Point","coordinates":[13.306658161565531,52.41565051492517]},"properties":{"plz":"12207","ortsteil":"Lichtenfelde"}},
{"type":"Feature","geometry":{"type":"Point","coordinates":[13.329016685546808,52.41599313109907]},"properties":{"plz":"12209","ortsteil":"Lichterfelde"}},
{"type":"Feature","geometry":{"type":"Point","coordinates":[13.337172850347542,52.43914095032964]},"properties":{"plz":"12247","ortsteil":"Lankwitz"}},
{"type":"Feature","geometry":{"type":"Point","coordinates":[13.351666579430432,52.42471549600188]},"properties":{"plz":"12249","ortsteil":"Lankwitz"}},
{"type":"Feature","geometry":{"type":"Point","coordinates":[13.376649012210892,52.41250926317217]},"properties":{"plz":"12277","ortsteil":"Marienfelde"}},
{"type":"Feature","geometry":{"type":"Point","coordinates":[13.352208634563405,52.40985596929622]},"properties":{"plz":"12279","ortsteil":"Marienfelde"}},
{"type":"Feature","geometry":{"type":"Point","coordinates":[13.401304887143587,52.40413036395883]},"properties":{"plz":"12305","ortsteil":"Lichtenrade"}},
{"type":"Feature","geometry":{"type":"Point","coordinates":[13.39282319793618,52.39005702818372]},"properties":{"plz":"12307","ortsteil":"Lichtenrade"}},
{"type":"Feature","geometry":{"type":"Point","coordinates":[13.417200101564577,52.39000764319037]},"properties":{"plz":"12309","ortsteil":"Lichtenrade"}},
{"type":"Feature","geometry":{"type":"Point","coordinates":[13.42785292142271,52.45130607729854]},"properties":{"plz":"12347","ortsteil":"Britz"}},
{"type":"Feature","geometry":{"type":"Point","coordinates":[13.422407530835446,52.42414321135515]},"properties":{"plz":"12349","ortsteil":"Buckow"}},
{"type":"Feature","geometry":{"type":"Point","coordinates":[13.45746701870415,52.43548180555278]},"properties":{"plz":"12351","ortsteil":"Buckow"}},
{"type":"Feature","geometry":{"type":"Point","coordinates":[13.45409570043765,52.42399142226719]},"properties":{"plz":"12353","ortsteil":"Gropiusstadt"}},
{"type":"Feature","geometry":{"type":"Point","coordinates":[13.498419154392156,52.409006964382634]},"properties":{"plz":"12355","ortsteil":"Rudow"}},
{"type":"Feature","geometry":{"type":"Point","coordinates":[13.492025063661135,52.4283732346168]},"properties":{"plz":"12357","ortsteil":"Rudow"}},
{"type":"Feature","geometry":{"type":"Point","coordinates":[13.453213366426596,52.44897410244684]},"properties":{"plz":"12359","ortsteil":"Britz"}},
{"type":"Feature","geometry":{"type":"Point","coordinates":[13.47074135842887,52.48499179423155]},"properties":{"plz":"12435","ortsteil":"Alt-Treptow"}},
{"type":"Feature","geometry":{"type":"Point","coordinates":[13.486218773945316,52.460533474877565]},"properties":{"plz":"12437","ortsteil":"Baumschulenweg"}},
{"type":"Feature","geometry":{"type":"Point","coordinates":[13.52649689710339,52.447643170173436]},"properties":{"plz":"12439","ortsteil":"Niederschöneweide"}},
{"type":"Feature","geometry":{"type":"Point","coordinates":[13.524463649759845,52.46327963257856]},"properties":{"plz":"12459","ortsteil":"Oberschöneweide"}},
{"type":"Feature","geometry":{"type":"Point","coordinates":[13.504333758499136,52.44405534589039]},"properties":{"plz":"12487","ortsteil":"Johannisthal"}},
{"type":"Feature","geometry":{"type":"Point","coordinates":[13.545860240398984,52.43719725773309]},"properties":{"plz":"12489","ortsteil":"Adlershof"}},
{"type":"Feature","geometry":{"type":"Point","coordinates":[13.541108594088179,52.413178912176136]},"properties":{"plz":"12524","ortsteil":"Altglienicke"}},
{"type":"Feature","geometry":{"type":"Point","coordinates":[13.564194578909209,52.39847853226487]},"properties":{"plz":"12526","ortsteil":"Bohnsdorf"}},
{"type":"Feature","geometry":{"type":"Point","coordinates":[13.615582358073901,52.392937820929305]},"properties":{"plz":"12527","ortsteil":"Schmöckwitz"}},
{"type":"Feature","geometry":{"type":"Point","coordinates":[13.511171442905162,52.368776068149536]},"properties":{"plz":"12529","ortsteil":"Schönefeld"}},
{"type":"Feature","geometry":{"type":"Point","coordinates":[13.57932580028087,52.4621250634708]},"properties":{"plz":"12555","ortsteil":"Köpenik"}},
{"type":"Feature","geometry":{"type":"Point","coordinates":[13.595241395778862,52.42521282439941]},"properties":{"plz":"12557","ortsteil":"Köpenick"}},
{"type":"Feature","geometry":{"type":"Point","coordinates":[13.661920989103338,52.40871477991399]},"properties":{"plz":"12559","ortsteil":"Köpenick"}},
{"type":"Feature","geometry":{"type":"Point","coordinates":[13.64386863717425,52.459700686426544]},"properties":{"plz":"12587","ortsteil":"Wiesengrund"}},
{"type":"Feature","geometry":{"type":"Point","coordinates":[13.708141050108003,52.44057600511221]},"properties":{"plz":"12589","ortsteil":"Rahnsdorf"}},
{"type":"Feature","geometry":{"type":"Point","coordinates":[13.588776825084567,52.524309675356534]},"properties":{"plz":"12619","ortsteil":"Hellersdorf"}},
{"type":"Feature","geometry":{"type":"Point","coordinates":[13.588086143424585,52.50367826909681]},"properties":{"plz":"12621","ortsteil":"Kaulsdorf"}},
{"type":"Feature","geometry":{"type":"Point","coordinates":[13.612701564348907,52.502101129298744]},"properties":{"plz":"12623","ortsteil":"Mahlsdorf"}},
{"type":"Feature","geometry":{"type":"Point","coordinates":[13.611240947438326,52.53639114902825]},"properties":{"plz":"12627","ortsteil":"Hellersdorf"}},
{"type":"Feature","geometry":{"type":"Point","coordinates":[13.589097197318114,52.54264551357042]},"properties":{"plz":"12629","ortsteil":"Hellersdorf"}},
{"type":"Feature","geometry":{"type":"Point","coordinates":[13.560861000242303,52.54819211228144]},"properties":{"plz":"12679","ortsteil":"Marzahn"}},
{"type":"Feature","geometry":{"type":"Point","coordinates":[13.531569327960566,52.526101994223794]},"properties":{"plz":"12681","ortsteil":"Marzahn"}},
{"type":"Feature","geometry":{"type":"Point","coordinates":[13.558810445568602,52.50858104040201]},"properties":{"plz":"12683","ortsteil":"Biesdorf"}},
{"type":"Feature","geometry":{"type":"Point","coordinates":[13.565277295144941,52.53972596355211]},"properties":{"plz":"12685","ortsteil":"Marzahn"}},
{"type":"Feature","geometry":{"type":"Point","coordinates":[13.570285215041272,52.556246494680295]},"properties":{"plz":"12687","ortsteil":"Marzahn"}},
{"type":"Feature","geometry":{"type":"Point","coordinates":[13.569109544409468,52.5669968562088]},"properties":{"plz":"12689","ortsteil":"Marzahn"}},
{"type":"Feature","geometry":{"type":"Point","coordinates":[13.493794730713251,52.58476696758271]},"properties":{"plz":"13051","ortsteil":"Neu-Schönhausen"}},
{"type":"Feature","geometry":{"type":"Point","coordinates":[13.516403078876726,52.55266106658351]},"properties":{"plz":"13053","ortsteil":"Alt-Hohenschönhausen"}},
{"type":"Feature","geometry":{"type":"Point","coordinates":[13.502008022711184,52.54195384281701]},"properties":{"plz":"13055","ortsteil":"Alt-Hohenschönhausen"}},
{"type":"Feature","geometry":{"type":"Point","coordinates":[13.550356259411382,52.577473662601975]},"properties":{"plz":"13057","ortsteil":"Falkenberg"}},
{"type":"Feature","geometry":{"type":"Point","coordinates":[13.521724527577877,52.580742050295186]},"properties":{"plz":"13059","ortsteil":"Wartenberg"}},
{"type":"Feature","geometry":{"type":"Point","coordinates":[13.448576246955142,52.55615808235098]},"properties":{"plz":"13086","ortsteil":"Weißensee"}},
{"type":"Feature","geometry":{"type":"Point","coordinates":[13.474069608095867,52.56340357700286]},"properties":{"plz":"13088","ortsteil":"Weißensee"}},
{"type":"Feature","geometry":{"type":"Point","coordinates":[13.441170261367068,52.57284579073202]},"properties":{"plz":"13089","ortsteil":"Heinelsdorf"}},
{"type":"Feature","geometry":{"type":"Point","coordinates":[13.485083085465638,52.633273444840384]},"properties":{"plz":"13125","ortsteil":"Buch"}},
{"type":"Feature","geometry":{"type":"Point","coordinates":[13.433860257324493,52.618993766642475]},"properties":{"plz":"13127","ortsteil":"Französisch Buchholz"}},
{"type":"Feature","geometry":{"type":"Point","coordinates":[13.457739662130482,52.593110611216474]},"properties":{"plz":"13129","ortsteil":"Blankenburg"}},
{"type":"Feature","geometry":{"type":"Point","coordinates":[13.394784937844955,52.58039160896772]},"properties":{"plz":"13156","ortsteil":"Niederschönhausen"}},
{"type":"Feature","geometry":{"type":"Point","coordinates":[13.380263109637742,52.596195360918145]},"properties":{"plz":"13158","ortsteil":"Rosenthal"}},
{"type":"Feature","geometry":{"type":"Point","coordinates":[13.394420225509279,52.620421650257285]},"properties":{"plz":"13159","ortsteil":"Blankenfelde"}},
{"type":"Feature","geometry":{"type":"Point","coordinates":[13.402854739928314,52.56546204520876]},"properties":{"plz":"13187","ortsteil":"Pankow"}},
{"type":"Feature","geometry":{"type":"Point","coordinates":[13.419991152431027,52.563205476618634]},"properties":{"plz":"13189","ortsteil":"Pankow"}},
{"type":"Feature","geometry":{"type":"Point","coordinates":[13.364212782669552,52.55141759981987]},"properties":{"plz":"13347","ortsteil":"Wedding"}},
{"type":"Feature","geometry":{"type":"Point","coordinates":[13.347217961953746,52.5580743812814]},"properties":{"plz":"13349","ortsteil":"Wedding"}},
{"type":"Feature","geometry":{"type":"Point","coordinates":[13.331662922445329,52.55091063003073]},"properties":{"plz":"13351","ortsteil":"Wedding"}},
{"type":"Feature","geometry":{"type":"Point","coordinates":[13.351770641341096,52.54405428662913]},"properties":{"plz":"13353","ortsteil":"Wedding"}},
{"type":"Feature","geometry":{"type":"Point","coordinates":[13.390495320553773,52.541782569431]},"properties":{"plz":"13355","ortsteil":"Wedding"}},
{"type":"Feature","geometry":{"type":"Point","coordinates":[13.383112451889012,52.549993886139845]},"properties":{"plz":"13357","ortsteil":"Gesundbrunnen"}},
{"type":"Feature","geometry":{"type":"Point","coordinates":[13.38618821877757,52.5603320307694]},"properties":{"plz":"13359","ortsteil":"Gesundbrunnen"}},
{"type":"Feature","geometry":{"type":"Point","coordinates":[13.324406929774824,52.571973283349166]},"properties":{"plz":"13403","ortsteil":"Reinickendorf"}},
{"type":"Feature","geometry":{"type":"Point","coordinates":[13.29720663038383,52.55870186075364]},"properties":{"plz":"13405","ortsteil":"Wedding"}},
{"type":"Feature","geometry":{"type":"Point","coordinates":[13.349489361819149,52.572770526296466]},"properties":{"plz":"13407","ortsteil":"13407 Berlin-West"}},
{"type":"Feature","geometry":{"type":"Point","coordinates":[13.371339296679041,52.56814411626968]},"properties":{"plz":"13409","ortsteil":"13409 Berlin-West"}},
{"type":"Feature","geometry":{"type":"Point","coordinates":[13.33980734331131,52.60186330580832]},"properties":{"plz":"13435","ortsteil":"Märkisches Viertel"}},
{"type":"Feature","geometry":{"type":"Point","coordinates":[13.327869698564573,52.59278509642094]},"properties":{"plz":"13437","ortsteil":"Reinickendorf"}},
{"type":"Feature","geometry":{"type":"Point","coordinates":[13.355789370133214,52.59544583623129]},"properties":{"plz":"13439","ortsteil":"Märkisches Viertel"}},
{"type":"Feature","geometry":{"type":"Point","coordinates":[13.294964883495327,52.63986159455402]},"properties":{"plz":"13465","ortsteil":"Frohnau"}},
{"type":"Feature","geometry":{"type":"Point","coordinates":[13.307107371915238,52.617245934107146]},"properties":{"plz":"13467","ortsteil":"Hermsdorf"}},
{"type":"Feature","geometry":{"type":"Point","coordinates":[13.347172445233372,52.614248784680456]},"properties":{"plz":"13469","ortsteil":"Lübars"}},
{"type":"Feature","geometry":{"type":"Point","coordinates":[13.249604077305914,52.613944108752754]},"properties":{"plz":"13503","ortsteil":"Tegel"}},
{"type":"Feature","geometry":{"type":"Point","coordinates":[13.238279437314386,52.581641810485365]},"properties":{"plz":"13505","ortsteil":"Tegel"}},
{"type":"Feature","geometry":{"type":"Point","coordinates":[13.28048142010294,52.57631087284817]},"properties":{"plz":"13507","ortsteil":"Tegel"}},
{"type":"Feature","geometry":{"type":"Point","coordinates":[13.301925534994853,52.58474761348354]},"properties":{"plz":"13509","ortsteil":"Reinickendorf"}},
{"type":"Feature","geometry":{"type":"Point","coordinates":[13.179423807405719,52.53061451940563]},"properties":{"plz":"13581","ortsteil":"Spandau"}},
{"type":"Feature","geometry":{"type":"Point","coordinates":[13.18205025151739,52.54295833634289]},"properties":{"plz":"13583","ortsteil":"Spandau"}},
{"type":"Feature","geometry":{"type":"Point","coordinates":[13.203781800201675,52.545822172701804]},"properties":{"plz":"13585","ortsteil":"Spandau"}},
{"type":"Feature","geometry":{"type":"Point","coordinates":[13.18067402405667,52.57997502695402]},"properties":{"plz":"13587","ortsteil":"Hakenfelde"}},
{"type":"Feature","geometry":{"type":"Point","coordinates":[13.16192108236405,52.55748527758894]},"properties":{"plz":"13589","ortsteil":"Falkenhagener Feld"}},
{"type":"Feature","geometry":{"type":"Point","coordinates":[13.136596165293678,52.53697746814662]},"properties":{"plz":"13591","ortsteil":"Staaken"}},
{"type":"Feature","geometry":{"type":"Point","coordinates":[13.168743255437795,52.51693757543535]},"properties":{"plz":"13593","ortsteil":"Wilhelmstadt"}},
{"type":"Feature","geometry":{"type":"Point","coordinates":[13.196243672603782,52.511492130842335]},"properties":{"plz":"13595","ortsteil":"Wlhelmstadt"}},
{"type":"Feature","geometry":{"type":"Point","coordinates":[13.21974514884857,52.524911725482525]},"properties":{"plz":"13597","ortsteil":"Spandau"}},
{"type":"Feature","geometry":{"type":"Point","coordinates":[13.235436400260657,52.54597753449754]},"properties":{"plz":"13599","ortsteil":"Haselhorst"}},
{"type":"Feature","geometry":{"type":"Point","coordinates":[13.305509094434136,52.541556379582474]},"properties":{"plz":"13627","ortsteil":"Charlottenburg-Nord"}},
{"type":"Feature","geometry":{"type":"Point","coordinates":[13.263184717724313,52.53944622297854]},"properties":{"plz":"13629","ortsteil":"Siemensstadt"}},
{"type":"Feature","geometry":{"type":"Point","coordinates":[13.267392345117896,52.52172115116187]},"properties":{"plz":"14050","ortsteil":"Westend"}},
{"type":"Feature","geometry":{"type":"Point","coordinates":[13.255940695677698,52.515575629532954]},"properties":{"plz":"14052","ortsteil":"Westend"}},
{"type":"Feature","geometry":{"type":"Point","coordinates":[13.238208627755983,52.51582669942208]},"properties":{"plz":"14053","ortsteil":"Westend"}},
{"type":"Feature","geometry":{"type":"Point","coordinates":[13.259387871420142,52.49820614214681]},"properties":{"plz":"14055","ortsteil":"Westend"}},
{"type":"Feature","geometry":{"type":"Point","coordinates":[13.288137414086801,52.50664642920452]},"properties":{"plz":"14057","ortsteil":"Charlottenburg"}},
{"type":"Feature","geometry":{"type":"Point","coordinates":[13.288183452407162,52.520607867951014]},"properties":{"plz":"14059","ortsteil":"Charlottenburg"}},
{"type":"Feature","geometry":{"type":"Point","coordinates":[13.151665633155993,52.471248390223074]},"properties":{"plz":"14089","ortsteil":"Gatow"}},
{"type":"Feature","geometry":{"type":"Point","coordinates":[13.143130408019863,52.420077822006895]},"properties":{"plz":"14109","ortsteil":"Wannsee"}},
{"type":"Feature","geometry":{"type":"Point","coordinates":[13.201829517848804,52.445021171245614]},"properties":{"plz":"14129","ortsteil":"Nikolassee"}},
{"type":"Feature","geometry":{"type":"Point","coordinates":[13.238892763859985,52.437745642718134]},"properties":{"plz":"14163","ortsteil":"Zehlendorf"}},
{"type":"Feature","geometry":{"type":"Point","coordinates":[13.255748455581477,52.415969834454785]},"properties":{"plz":"14165","ortsteil":"Zehlendorf"}},
{"type":"Feature","geometry":{"type":"Point","coordinates":[13.276626145629463,52.421311781796135]},"properties":{"plz":"14167","ortsteil":"Zehlendorf"}},
{"type":"Feature","geometry":{"type":"Point","coordinates":[13.258921348549473,52.44794904498615]},"properties":{"plz":"14169","ortsteil":"Zehlendorf"}},
{"type":"Feature","geometry":{"type":"Point","coordinates":[13.237375571694448,52.48320998959328]},"properties":{"plz":"14193","ortsteil":"Grunewald"}},
{"type":"Feature","geometry":{"type":"Point","coordinates":[13.282787079744761,52.457487104645075]},"properties":{"plz":"14195","ortsteil":"Dahlem"}},
{"type":"Feature","geometry":{"type":"Point","coordinates":[13.311970403526233,52.473611770697424]},"properties":{"plz":"14197","ortsteil":"Wilmersdorf"}},
{"type":"Feature","geometry":{"type":"Point","coordinates":[13.293750880887568,52.47722420704456]},"properties":{"plz":"14199","ortsteil":"Schmargendorf"}}
]